[{"OBJECT_NAME":"ORBCOMM FM108","OBJECT_ID":"2015-081J","EPOCH":"2026-03-09T21:48:58.312800","MEAN_MOTION":14.58744372,"ECCENTRICITY":0.00021704,"INCLINATION":47.0049,"RA_OF_ASC_NODE":291.5329,"ARG_OF_PERICENTER":99.248,"MEAN_ANOMALY":260.8651,"EPHEMERIS_TYPE":0,"CLASSIFICATION_TYPE":"U","NORAD_CAT_ID":41187,"ELEMENT_SET_NO":999,"REV_AT_EPOCH":54558,"BSTAR":0.0002287344,"MEAN_MOTION_DOT":9.07e-6,"MEAN_MOTION_DDOT":0},{"OBJECT_NAME":"FENGYUN 1C DEB","OBJECT_ID":"1999-025AZU","EPOCH":"2026-03-09T13:50:17.763936","MEAN_MOTION":14.37639502,"ECCENTRICITY":0.0107759,"INCLINATION":98.2066,"RA_OF_ASC_NODE":97.9918,"ARG_OF_PERICENTER":204.6718,"MEAN_ANOMALY":310.1174,"EPHEMERIS_TYPE":0,"CLASSIFICATION_TYPE":"U","NORAD_CAT_ID":30930,"ELEMENT_SET_NO":999,"REV_AT_EPOCH":99579,"BSTAR":0.00038252,"MEAN_MOTION_DOT":1.185e-5,"MEAN_MOTION_DDOT":0}]
